{"type": "FeatureCollection", "features": [ {"type": "Feature", "properties": {"norad_id": 30688, "name": "FENGYUN 1C DEB", "group": "fengyun-1c-debris", "lat": 11.97306020509293, "lon": -125.58820528827543, "alt_km": 794.949897213155, "timestamp": "2025-12-05T04:52:15.570162+00:00", "meta": {"OBJECT_NAME": "FENGYUN 1C DEB", "OBJECT_ID": "1999-025AQW", "EPOCH": "2025-12-03T03:37:05.668320", "MEAN_MOTION": 14.32560008, "ECCENTRICITY": 0.00149147, "INCLINATION": 98.7031, "RA_OF_ASC_NODE": 50.4905, "ARG_OF_PERICENTER": 346.5915, "MEAN_ANOMALY": 43.5186, "EPHEMERIS_TYPE": 0, "CLASSIFICATION_TYPE": "U", "NORAD_CAT_ID": 30688, "ELEMENT_SET_NO": 999, "REV_AT_EPOCH": 97123, "BSTAR": 0.0021990073, "MEAN_MOTION_DOT": 5.933e-05, "MEAN_MOTION_DDOT": 0}, "tle": {"line1": "1 30688U 99025AQW 25337.15076005  .00005933  00000+0  21990-2 0  9996", "line2": "2 30688  98.7031  50.4905 0014914 346.5915  43.5186 14.32560008971238"}}, "geometry": {"type": "Point", "coordinates": [-125.58820528827543, 11.97306020509293]}}, {"type": "Feature", "properties": {"norad_id": 30689, "name": "FENGYUN 1C DEB", "group": "fengyun-1c-debris", "lat": 7.648022444639579, "lon": -35.52188387313744, "alt_km": 890.7568413402423, "timestamp": "2025-12-05T04:52:15.570171+00:00", "meta": {"OBJECT_NAME": "FENGYUN 1C DEB", "OBJECT_ID": "1999-025AQX", "EPOCH": "2025-12-03T22:28:27.456096", "MEAN_MOTION": 14.11748662, "ECCENTRICITY": 0.01115151, "INCLINATION": 98.7074, "RA_OF_ASC_NODE": 324.4278, "ARG_OF_PERICENTER": 128.1488, "MEAN_ANOMALY": 287.5683, "EPHEMERIS_TYPE": 0, "CLASSIFICATION_TYPE": "U", "NORAD_CAT_ID": 30689, "ELEMENT_SET_NO": 999, "REV_AT_EPOCH": 96766, "BSTAR": 0.00055107771, "MEAN_MOTION_DOT": 1.023e-05, "MEAN_MOTION_DDOT": 0}, "tle": {"line1": "1 30689U 99025AQX 25337.93642889  .00001023  00000+0  55108-3 0  9997", "line2": "2 30689  98.7074 324.4278 0111515 128.1488 287.5683 14.11748662967662"}}, "geometry": {"type": "Point", "coordinates": [-35.52188387313744, 7.648022444639579]}}, {"type": "Feature", "properties": {"norad_id": 30690, "name": "FENGYUN 1C DEB", "group": "fengyun-1c-debris", "lat": -47.98390215372317, "lon": -80.12171240976285, "alt_km": 954.8632984863216, "timestamp": "2025-12-05T04:52:15.570180+00:00", "meta": {"OBJECT_NAME": "FENGYUN 1C DEB", "OBJECT_ID": "1999-025AQY", "EPOCH": "2025-12-04T12:16:02.501184", "MEAN_MOTION": 14.02276988, "ECCENTRICITY": 0.010452, "INCLINATION": 99.1597, "RA_OF_ASC_NODE": 268.8664, "ARG_OF_PERICENTER": 98.507, "MEAN_ANOMALY": 322.9179, "EPHEMERIS_TYPE": 0, "CLASSIFICATION_TYPE": "U", "NORAD_CAT_ID": 30690, "ELEMENT_SET_NO": 999, "REV_AT_EPOCH": 95592, "BSTAR": 0.0021875, "MEAN_MOTION_DOT": 3.474e-05, "MEAN_MOTION_DDOT": 0}, "tle": {"line1": "1 30690U 99025AQY 25338.51114006  .00003474  00000+0  21875-2 0  9994", "line2": "2 30690  99.1597 268.8664 0104520  98.5070 322.9179 14.02276988955921"}}, "geometry": {"type": "Point", "coordinates": [-80.12171240976285, -47.98390215372317]}}, {"type": "Feature", "properties": {"norad_id": 30691, "name": "FENGYUN 1C DEB", "group": "fengyun-1c-debris", "lat": -59.89813056317851, "lon": 6.461300538657848, "alt_km": 865.4690830184172, "timestamp": "2025-12-05T04:52:15.570190+00:00", "meta": {"OBJECT_NAME": "FENGYUN 1C DEB", "OBJECT_ID": "1999-025AQZ", "EPOCH": "2025-12-04T12:37:57.967968", "MEAN_MOTION": 13.89397737, "ECCENTRICITY": 0.0139074, "INCLINATION": 98.7428, "RA_OF_ASC_NODE": 350.4328, "ARG_OF_PERICENTER": 255.6423, "MEAN_ANOMALY": 259.8588, "EPHEMERIS_TYPE": 0, "CLASSIFICATION_TYPE": "U", "NORAD_CAT_ID": 30691, "ELEMENT_SET_NO": 999, "REV_AT_EPOCH": 95002, "BSTAR": 0.001825, "MEAN_MOTION_DOT": 2.365e-05, "MEAN_MOTION_DDOT": 0}, "tle": {"line1": "1 30691U 99025AQZ 25338.52636537  .00002365  00000+0  18250-2 0  9995", "line2": "2 30691  98.7428 350.4328 0139074 255.6423 259.8588 13.89397737950023"}}, "geometry": {"type": "Point", "coordinates": [6.461300538657848, -59.89813056317851]}}, {"type": "Feature", "properties": {"norad_id": 30693, "name": "FENGYUN 1C DEB", "group": "fengyun-1c-debris", "lat": 53.273392791829295, "lon": 156.3740987438979, "alt_km": 833.713054232061, "timestamp": "2025-12-05T04:52:15.570199+00:00", "meta": {"OBJECT_NAME": "FENGYUN 1C DEB", "OBJECT_ID": "1999-025ARB", "EPOCH": "2025-12-04T04:29:17.934432", "MEAN_MOTION": 14.13271306, "ECCENTRICITY": 0.0028886, "INCLINATION": 98.6856, "RA_OF_ASC_NODE": 323.5656, "ARG_OF_PERICENTER": 191.9396, "MEAN_ANOMALY": 168.1095, "EPHEMERIS_TYPE": 0, "CLASSIFICATION_TYPE": "U", "NORAD_CAT_ID": 30693, "ELEMENT_SET_NO": 999, "REV_AT_EPOCH": 96814, "BSTAR": 0.00055633, "MEAN_MOTION_DOT": 1.004e-05, "MEAN_MOTION_DDOT": 0}, "tle": {"line1": "1 30693U 99025ARB 25338.18701313  .00001004  00000+0  55633-3 0  9990", "line2": "2 30693  98.6856 323.5656 0028886 191.9396 168.1095 14.13271306968141"}}, "geometry": {"type": "Point", "coordinates": [156.3740987438979, 53.273392791829295]}}, {"type": "Feature", "properties": {"norad_id": 30694, "name": "FENGYUN 1C DEB", "group": "fengyun-1c-debris", "lat": -19.74288053663874, "lon": 121.09022526509867, "alt_km": 659.3250615780644, "timestamp": "2025-12-05T04:52:15.570208+00:00", "meta": {"OBJECT_NAME": "FENGYUN 1C DEB", "OBJECT_ID": "1999-025ARC", "EPOCH": "2025-12-04T16:39:08.549280", "MEAN_MOTION": 14.86053707, "ECCENTRICITY": 0.0132159, "INCLINATION": 99.046, "RA_OF_ASC_NODE": 303.7895, "ARG_OF_PERICENTER": 320.6213, "MEAN_ANOMALY": 38.5447, "EPHEMERIS_TYPE": 0, "CLASSIFICATION_TYPE": "U", "NORAD_CAT_ID": 30694, "ELEMENT_SET_NO": 999, "REV_AT_EPOCH": 99982, "BSTAR": 0.0035939, "MEAN_MOTION_DOT": 0.0003695, "MEAN_MOTION_DDOT": 0}, "tle": {"line1": "1 30694U 99025ARC 25338.69384895  .00036950  00000+0  35939-2 0  9993", "line2": "2 30694  99.0460 303.7895 0132159 320.6213  38.5447 14.86053707999824"}}, "geometry": {"type": "Point", "coordinates": [121.09022526509867, -19.74288053663874]}}, {"type": "Feature", "properties": {"norad_id": 30696, "name": "FENGYUN 1C DEB", "group": "fengyun-1c-debris", "lat": -8.562288889553285, "lon": -152.95581252946093, "alt_km": 697.887087042156, "timestamp": "2025-12-05T04:52:15.570217+00:00", "meta": {"OBJECT_NAME": "FENGYUN 1C DEB", "OBJECT_ID": "1999-025ARE", "EPOCH": "2025-12-04T16:57:53.789184", "MEAN_MOTION": 14.44686321, "ECCENTRICITY": 0.0089948, "INCLINATION": 98.3899, "RA_OF_ASC_NODE": 27.8277, "ARG_OF_PERICENTER": 149.8094, "MEAN_ANOMALY": 339.4829, "EPHEMERIS_TYPE": 0, "CLASSIFICATION_TYPE": "U", "NORAD_CAT_ID": 30696, "ELEMENT_SET_NO": 999, "REV_AT_EPOCH": 98188, "BSTAR": 0.0020287, "MEAN_MOTION_DOT": 7.351e-05, "MEAN_MOTION_DDOT": 0}, "tle": {"line1": "1 30696U 99025ARE 25338.70687256  .00007351  00000+0  20287-2 0  9997", "line2": "2 30696  98.3899  27.8277 0089948 149.8094 339.4829 14.44686321981889"}}, "geometry": {"type": "Point", "coordinates": [-152.95581252946093, -8.562288889553285]}}, {"type": "Feature", "properties": {"norad_id": 30697, "name": "FENGYUN 1C DEB", "group": "fengyun-1c-debris", "lat": 78.55766891402106, "lon": -14.714508764474493, "alt_km": 874.8329473545127, "timestamp": "2025-12-05T04:52:15.570226+00:00", "meta": {"OBJECT_NAME": "FENGYUN 1C DEB", "OBJECT_ID": "1999-025ARF", "EPOCH": "2025-12-04T15:36:00.756000", "MEAN_MOTION": 14.13445219, "ECCENTRICITY": 0.0087816, "INCLINATION": 98.9078, "RA_OF_ASC_NODE": 35.5271, "ARG_OF_PERICENTER": 207.8421, "MEAN_ANOMALY": 303.7406, "EPHEMERIS_TYPE": 0, "CLASSIFICATION_TYPE": "U", "NORAD_CAT_ID": 30697, "ELEMENT_SET_NO": 999, "REV_AT_EPOCH": 96146, "BSTAR": 0.0032239, "MEAN_MOTION_DOT": 6.249e-05, "MEAN_MOTION_DDOT": 0}, "tle": {"line1": "1 30697U 99025ARF 25338.65000875  .00006249  00000+0  32239-2 0  9993", "line2": "2 30697  98.9078  35.5271 0087816 207.8421 303.7406 14.13445219961468"}}, "geometry": {"type": "Point", "coordinates": [-14.714508764474493, 78.55766891402106]}}, {"type": "Feature", "properties": {"norad_id": 30699, "name": "FENGYUN 1C DEB", "group": "fengyun-1c-debris", "lat": 28.167302478089667, "lon": 92.89499117361139, "alt_km": 736.2151890618989, "timestamp": "2025-12-05T04:52:15.570235+00:00", "meta": {"OBJECT_NAME": "FENGYUN 1C DEB", "OBJECT_ID": "1999-025ARH", "EPOCH": "2025-12-04T07:09:40.406976", "MEAN_MOTION": 14.4671277, "ECCENTRICITY": 0.0003731, "INCLINATION": 99.3122, "RA_OF_ASC_NODE": 96.942, "ARG_OF_PERICENTER": 273.7696, "MEAN_ANOMALY": 86.3066, "EPHEMERIS_TYPE": 0, "CLASSIFICATION_TYPE": "U", "NORAD_CAT_ID": 30699, "ELEMENT_SET_NO": 999, "REV_AT_EPOCH": 97491, "BSTAR": 0.0061354, "MEAN_MOTION_DOT": 0.00022206, "MEAN_MOTION_DDOT": 0}, "tle": {"line1": "1 30699U 99025ARH 25338.29838434  .00022206  00000+0  61354-2 0  9996", "line2": "2 30699  99.3122  96.9420 0003731 273.7696  86.3066 14.46712770974917"}}, "geometry": {"type": "Point", "coordinates": [92.89499117361139, 28.167302478089667]}}, {"type": "Feature", "properties": {"norad_id": 30700, "name": "FENGYUN 1C DEB", "group": "fengyun-1c-debris", "lat": 25.3862130179913, "lon": 3.642983925178036, "alt_km": 858.7765835572, "timestamp": "2025-12-05T04:52:15.570244+00:00", "meta": {"OBJECT_NAME": "FENGYUN 1C DEB", "OBJECT_ID": "1999-025ARJ", "EPOCH": "2025-12-03T07:12:35.856000", "MEAN_MOTION": 14.23780889, "ECCENTRICITY": 0.0086694, "INCLINATION": 98.5427, "RA_OF_ASC_NODE": 5.885, "ARG_OF_PERICENTER": 170.6255, "MEAN_ANOMALY": 189.6567, "EPHEMERIS_TYPE": 0, "CLASSIFICATION_TYPE": "U", "NORAD_CAT_ID": 30700, "ELEMENT_SET_NO": 999, "REV_AT_EPOCH": 97435, "BSTAR": 0.00026931, "MEAN_MOTION_DOT": 5.98e-06, "MEAN_MOTION_DDOT": 0}, "tle": {"line1": "1 30700U 99025ARJ 25337.30041500  .00000598  00000+0  26931-3 0  9993", "line2": "2 30700  98.5427   5.8850 0086694 170.6255 189.6567 14.23780889974352"}}, "geometry": {"type": "Point", "coordinates": [3.642983925178036, 25.3862130179913]}}]}